[{"OBJECT_NAME":"STARLINK-32482","OBJECT_ID":"2024-224C","EPOCH":"2026-03-09T07:21:26.324352","MEAN_MOTION":15.27584526,"ECCENTRICITY":9.793e-5,"INCLINATION":43.0011,"RA_OF_ASC_NODE":160.0831,"ARG_OF_PERICENTER":256.7047,"MEAN_ANOMALY":103.3695,"EPHEMERIS_TYPE":0,"CLASSIFICATION_TYPE":"U","NORAD_CAT_ID":62141,"ELEMENT_SET_NO":999,"REV_AT_EPOCH":7226,"BSTAR":0.00057018125,"MEAN_MOTION_DOT":0.00015463,"MEAN_MOTION_DDOT":0},{"OBJECT_NAME":"HERMES-2","OBJECT_ID":"2025-052AK","EPOCH":"2026-03-09T22:17:00.130272","MEAN_MOTION":15.28021069,"ECCENTRICITY":0.00063399,"INCLINATION":97.4004,"RA_OF_ASC_NODE":324.4926,"ARG_OF_PERICENTER":99.416,"MEAN_ANOMALY":260.7796,"EPHEMERIS_TYPE":0,"CLASSIFICATION_TYPE":"U","NORAD_CAT_ID":63243,"ELEMENT_SET_NO":999,"REV_AT_EPOCH":5485,"BSTAR":0.00034839454,"MEAN_MOTION_DOT":9.456e-5,"MEAN_MOTION_DDOT":0}]
